[{"OBJECT_NAME":"STARLINK-1954","OBJECT_ID":"2021-009H","EPOCH":"2026-03-09T23:20:25.352160","MEAN_MOTION":15.30849174,"ECCENTRICITY":0.00046184,"INCLINATION":53.0574,"RA_OF_ASC_NODE":8.8654,"ARG_OF_PERICENTER":103.3293,"MEAN_ANOMALY":256.8222,"EPHEMERIS_TYPE":0,"CLASSIFICATION_TYPE":"U","NORAD_CAT_ID":47555,"ELEMENT_SET_NO":999,"REV_AT_EPOCH":28100,"BSTAR":0.0022371791,"MEAN_MOTION_DOT":0.00067883,"MEAN_MOTION_DDOT":0},{"OBJECT_NAME":"STARLINK-35278","OBJECT_ID":"2025-224W","EPOCH":"2026-03-09T06:02:35.810304","MEAN_MOTION":15.30219702,"ECCENTRICITY":0.00013841,"INCLINATION":53.1608,"RA_OF_ASC_NODE":13.6297,"ARG_OF_PERICENTER":95.9963,"MEAN_ANOMALY":264.1196,"EPHEMERIS_TYPE":0,"CLASSIFICATION_TYPE":"U","NORAD_CAT_ID":65902,"ELEMENT_SET_NO":999,"REV_AT_EPOCH":2480,"BSTAR":0.0010090938,"MEAN_MOTION_DOT":0.00029665,"MEAN_MOTION_DDOT":0}]
